[{"OBJECT_NAME":"ICESAT-2","OBJECT_ID":"2018-070A","EPOCH":"2026-03-09T22:54:12.225888","MEAN_MOTION":15.28328617,"ECCENTRICITY":0.00038245,"INCLINATION":91.9993,"RA_OF_ASC_NODE":264.2397,"ARG_OF_PERICENTER":123.8941,"MEAN_ANOMALY":236.2673,"EPHEMERIS_TYPE":0,"CLASSIFICATION_TYPE":"U","NORAD_CAT_ID":43613,"ELEMENT_SET_NO":999,"REV_AT_EPOCH":41730,"BSTAR":0.00014022643,"MEAN_MOTION_DOT":3.87e-5,"MEAN_MOTION_DDOT":0},{"OBJECT_NAME":"STARLINK-30144","OBJECT_ID":"2023-079N","EPOCH":"2026-03-09T11:12:52.591968","MEAN_MOTION":15.27165073,"ECCENTRICITY":2.537e-5,"INCLINATION":42.9924,"RA_OF_ASC_NODE":104.942,"ARG_OF_PERICENTER":240.8019,"MEAN_ANOMALY":119.2807,"EPHEMERIS_TYPE":0,"CLASSIFICATION_TYPE":"U","NORAD_CAT_ID":56835,"ELEMENT_SET_NO":999,"REV_AT_EPOCH":15289,"BSTAR":0.00074606889,"MEAN_MOTION_DOT":0.00020067,"MEAN_MOTION_DDOT":0}]
